{
  "type": "FeatureCollection",
  "features": [
    {
      "type": "Feature",
      "properties": {
        "norad_id": 66645,
        "name": "SHENZHOU-22",
        "group": "last-30-days",
        "lat": 29.280777306536415,
        "lon": 0.2186077170144013,
        "alt_km": 381.7758325701834,
        "timestamp": "2025-12-21T22:41:40.163815+00:00",
        "meta_object_name": "SHENZHOU-22",
        "meta_object_id": "2025-272A",
        "meta_epoch": "2025-12-21T13:16:11.322912",
        "meta_mean_motion": 15.59533817,
        "meta_eccentricity": 0.0007788,
        "meta_inclination": 41.4687,
        "meta_ra_of_asc_node": 323.1886,
        "meta_arg_of_pericenter": 108.2472,
        "meta_mean_anomaly": 251.9215,
        "meta_ephemeris_type": 0,
        "meta_classification_type": "U",
        "meta_norad_cat_id": 66645,
        "meta_element_set_no": 999,
        "meta_rev_at_epoch": 26519,
        "meta_bstar": 0.00020086225,
        "meta_mean_motion_dot": 0.00016128,
        "meta_mean_motion_ddot": 0,
        "tle_line1": "1 66645U 25272A   25355.55290883  .00016128  00000+0  20086-3 0  9991",
        "tle_line2": "2 66645  41.4687 323.1886 0007788 108.2472 251.9215 15.59533817265199"
      },
      "geometry": {
        "type": "Point",
        "coordinates": [
          0.2186077170144013,
          29.280777306536415
        ]
      }
    },
    {
      "type": "Feature",
      "properties": {
        "norad_id": 66647,
        "name": "COSMOS 2597 (RODNIK-S 22)",
        "group": "last-30-days",
        "lat": -28.320852340492358,
        "lon": 104.8038510426054,
        "alt_km": 1500.6322034680352,
        "timestamp": "2025-12-21T22:41:40.163825+00:00",
        "meta_object_name": "COSMOS 2597 (RODNIK-S 22)",
        "meta_object_id": "2025-273A",
        "meta_epoch": "2025-12-21T13:50:27.558240",
        "meta_mean_motion": 12.41952072,
        "meta_eccentricity": 0.00076144,
        "meta_inclination": 82.4994,
        "meta_ra_of_asc_node": 280.9618,
        "meta_arg_of_pericenter": 265.6449,
        "meta_mean_anomaly": 94.3761,
        "meta_ephemeris_type": 0,
        "meta_classification_type": "U",
        "meta_norad_cat_id": 66647,
        "meta_element_set_no": 999,
        "meta_rev_at_epoch": 323,
        "meta_bstar": 0.00012298549,
        "meta_mean_motion_dot": 2.7e-07,
        "meta_mean_motion_ddot": 0,
        "tle_line1": "1 66647U 25273A   25355.57670785  .00000027  00000+0  12299-3 0  9997",
        "tle_line2": "2 66647  82.4994 280.9618 0007614 265.6449  94.3761 12.41952072  3236"
      },
      "geometry": {
        "type": "Point",
        "coordinates": [
          104.8038510426054,
          -28.320852340492358
        ]
      }
    },
    {
      "type": "Feature",
      "properties": {
        "norad_id": 66648,
        "name": "COSMOS 2598 (RODNIK-S 23)",
        "group": "last-30-days",
        "lat": -71.6949585927332,
        "lon": -102.73084373880405,
        "alt_km": 1498.2173559200874,
        "timestamp": "2025-12-21T22:41:40.163835+00:00",
        "meta_object_name": "COSMOS 2598 (RODNIK-S 23)",
        "meta_object_id": "2025-273B",
        "meta_epoch": "2025-12-21T13:25:52.025952",
        "meta_mean_motion": 12.4323357,
        "meta_eccentricity": 0.00081179,
        "meta_inclination": 82.5032,
        "meta_ra_of_asc_node": 280.9626,
        "meta_arg_of_pericenter": 215.7776,
        "meta_mean_anomaly": 144.2761,
        "meta_ephemeris_type": 0,
        "meta_classification_type": "U",
        "meta_norad_cat_id": 66648,
        "meta_element_set_no": 999,
        "meta_rev_at_epoch": 323,
        "meta_bstar": 0.00020839632,
        "meta_mean_motion_dot": 3.9e-07,
        "meta_mean_motion_ddot": 0,
        "tle_line1": "1 66648U 25273B   25355.55962993  .00000039  00000+0  20840-3 0  9995",
        "tle_line2": "2 66648  82.5032 280.9626 0008117 215.7776 144.2761 12.43233570  3230"
      },
      "geometry": {
        "type": "Point",
        "coordinates": [
          -102.73084373880405,
          -71.6949585927332
        ]
      }
    },
    {
      "type": "Feature",
      "properties": {
        "norad_id": 66649,
        "name": "COSMOS 2599 (RODNIK-S 24)",
        "group": "last-30-days",
        "lat": 16.425931057935358,
        "lon": 98.53944727501627,
        "alt_km": 1502.312979953208,
        "timestamp": "2025-12-21T22:41:40.163845+00:00",
        "meta_object_name": "COSMOS 2599 (RODNIK-S 24)",
        "meta_object_id": "2025-273C",
        "meta_epoch": "2025-12-21T14:04:41.053728",
        "meta_mean_motion": 12.4115099,
        "meta_eccentricity": 0.00062552,
        "meta_inclination": 82.505,
        "meta_ra_of_asc_node": 280.9858,
        "meta_arg_of_pericenter": 256.7757,
        "meta_mean_anomaly": 103.2625,
        "meta_ephemeris_type": 0,
        "meta_classification_type": "U",
        "meta_norad_cat_id": 66649,
        "meta_element_set_no": 999,
        "meta_rev_at_epoch": 323,
        "meta_bstar": 8.9093746e-05,
        "meta_mean_motion_dot": 2.2e-07,
        "meta_mean_motion_ddot": 0,
        "tle_line1": "1 66649U 25273C   25355.58658627  .00000022  00000+0  89094-4 0  9994",
        "tle_line2": "2 66649  82.5050 280.9858 0006255 256.7757 103.2625 12.41150990  3239"
      },
      "geometry": {
        "type": "Point",
        "coordinates": [
          98.53944727501627,
          16.425931057935358
        ]
      }
    },
    {
      "type": "Feature",
      "properties": {
        "norad_id": 66650,
        "name": "BEE-1000",
        "group": "last-30-days",
        "lat": 16.948040086043097,
        "lon": -79.41100948515721,
        "alt_km": 600.3444679030981,
        "timestamp": "2025-12-21T22:41:40.163855+00:00",
        "meta_object_name": "BEE-1000",
        "meta_object_id": "2025-274A",
        "meta_epoch": "2025-12-21T12:57:30.273408",
        "meta_mean_motion": 14.91688425,
        "meta_eccentricity": 0.00108289,
        "meta_inclination": 97.7404,
        "meta_ra_of_asc_node": 282.5663,
        "meta_arg_of_pericenter": 218.7743,
        "meta_mean_anomaly": 141.27,
        "meta_ephemeris_type": 0,
        "meta_classification_type": "U",
        "meta_norad_cat_id": 66650,
        "meta_element_set_no": 999,
        "meta_rev_at_epoch": 371,
        "meta_bstar": 0.00013494486,
        "meta_mean_motion_dot": 1.302e-05,
        "meta_mean_motion_ddot": 0,
        "tle_line1": "1 66650U 25274A   25355.53993372  .00001302  00000+0  13494-3 0  9993",
        "tle_line2": "2 66650  97.7404 282.5663 0010828 218.7743 141.2700 14.91688425  3713"
      },
      "geometry": {
        "type": "Point",
        "coordinates": [
          -79.41100948515721,
          16.948040086043097
        ]
      }
    },
    {
      "type": "Feature",
      "properties": {
        "norad_id": 66651,
        "name": "2025-274B",
        "group": "last-30-days",
        "lat": 26.88716611242959,
        "lon": -80.98724913666103,
        "alt_km": 598.8160666977619,
        "timestamp": "2025-12-21T22:41:40.163865+00:00",
        "meta_object_name": "2025-274B",
        "meta_object_id": "2025-274B",
        "meta_epoch": "2025-12-21T12:54:52.236576",
        "meta_mean_motion": 14.91853638,
        "meta_eccentricity": 0.00111149,
        "meta_inclination": 97.7399,
        "meta_ra_of_asc_node": 282.567,
        "meta_arg_of_pericenter": 217.591,
        "meta_mean_anomaly": 142.4533,
        "meta_ephemeris_type": 0,
        "meta_classification_type": "U",
        "meta_norad_cat_id": 66651,
        "meta_element_set_no": 999,
        "meta_rev_at_epoch": 371,
        "meta_bstar": 0.00028639311,
        "meta_mean_motion_dot": 2.84e-05,
        "meta_mean_motion_ddot": 0,
        "tle_line1": "1 66651U 25274B   25355.53810459  .00002840  00000+0  28639-3 0  9993",
        "tle_line2": "2 66651  97.7399 282.5670 0011114 217.5910 142.4533 14.91853638  3714"
      },
      "geometry": {
        "type": "Point",
        "coordinates": [
          -80.98724913666103,
          26.88716611242959
        ]
      }
    },
    {
      "type": "Feature",
      "properties": {
        "norad_id": 66652,
        "name": "2025-274C",
        "group": "last-30-days",
        "lat": 37.63171486651341,
        "lon": -83.04612034385461,
        "alt_km": 596.5652024281544,
        "timestamp": "2025-12-21T22:41:40.163875+00:00",
        "meta_object_name": "2025-274C",
        "meta_object_id": "2025-274C",
        "meta_epoch": "2025-12-21T12:51:59.136768",
        "meta_mean_motion": 14.91945563,
        "meta_eccentricity": 0.00106589,
        "meta_inclination": 97.7403,
        "meta_ra_of_asc_node": 282.5711,
        "meta_arg_of_pericenter": 224.4078,
        "meta_mean_anomaly": 135.6287,
        "meta_ephemeris_type": 0,
        "meta_classification_type": "U",
        "meta_norad_cat_id": 66652,
        "meta_element_set_no": 999,
        "meta_rev_at_epoch": 371,
        "meta_bstar": 0.00023585552,
        "meta_mean_motion_dot": 2.334e-05,
        "meta_mean_motion_ddot": 0,
        "tle_line1": "1 66652U 25274C   25355.53610112  .00002334  00000+0  23586-3 0  9992",
        "tle_line2": "2 66652  97.7403 282.5711 0010658 224.4078 135.6287 14.91945563  3710"
      },
      "geometry": {
        "type": "Point",
        "coordinates": [
          -83.04612034385461,
          37.63171486651341
        ]
      }
    }
  ]
}